[{"OBJECT_NAME":"STARLINK-30039","OBJECT_ID":"2023-107M","EPOCH":"2026-03-09T22:00:01.999584","MEAN_MOTION":15.27585284,"ECCENTRICITY":0.00016935,"INCLINATION":43.0004,"RA_OF_ASC_NODE":335.0485,"ARG_OF_PERICENTER":269.332,"MEAN_ANOMALY":289.7013,"EPHEMERIS_TYPE":0,"CLASSIFICATION_TYPE":"U","NORAD_CAT_ID":57468,"ELEMENT_SET_NO":999,"REV_AT_EPOCH":572,"BSTAR":-0.0001889063,"MEAN_MOTION_DOT":-5.458e-5,"MEAN_MOTION_DDOT":0},{"OBJECT_NAME":"HAWK-11C","OBJECT_ID":"2024-247E","EPOCH":"2026-03-09T12:17:35.407968","MEAN_MOTION":15.2884802,"ECCENTRICITY":0.00059001,"INCLINATION":45.0045,"RA_OF_ASC_NODE":114.8762,"ARG_OF_PERICENTER":329.704,"MEAN_ANOMALY":30.3502,"EPHEMERIS_TYPE":0,"CLASSIFICATION_TYPE":"U","NORAD_CAT_ID":62381,"ELEMENT_SET_NO":999,"REV_AT_EPOCH":6774,"BSTAR":0.00033290115,"MEAN_MOTION_DOT":9.223e-5,"MEAN_MOTION_DDOT":0}]
